{"epoch":1784799577,"count":18318,"objects":[{"id":"38755","name":"SPOT 6","type":"PAYLOAD","l1":"1 38755U 12047A   26203.93962769 -.00000015  00000-0  65793-5 0  9998","l2":"2 38755  98.2100 270.8263 0001141  93.7365 266.3965 14.58540636738263"},{"id":"40053","name":"SPOT 7","type":"PAYLOAD","l1":"1 40053U 14034A   26203.93249374  .00000152  00000-0  40225-4 0  9993","l2":"2 40053  98.0609 265.4997 0001697  94.4528 265.6867 14.60984601642352"}]}