{"fetched_at":"2026-07-23T07:06:04.248Z","source":"https://celestrak.org/NORAD/elements/gp.php?NAME=SPOT&FORMAT=JSON","constellation":"spot","records":[{"OBJECT_NAME":"SPOT 6","OBJECT_ID":"2012-047A","EPOCH":"2026-07-22T22:33:03.832416","CLASSIFICATION_TYPE":"U","MEAN_MOTION":14.58540636,"ECCENTRICITY":0.00011413,"INCLINATION":98.21,"RA_OF_ASC_NODE":270.8263,"ARG_OF_PERICENTER":93.7365,"MEAN_ANOMALY":266.3965,"EPHEMERIS_TYPE":0,"NORAD_CAT_ID":38755,"ELEMENT_SET_NO":999,"REV_AT_EPOCH":73826,"BSTAR":0.000006579264,"MEAN_MOTION_DOT":-1.5e-7,"MEAN_MOTION_DDOT":0},{"OBJECT_NAME":"SPOT 7","OBJECT_ID":"2014-034A","EPOCH":"2026-07-22T22:22:47.459136","CLASSIFICATION_TYPE":"U","MEAN_MOTION":14.60984601,"ECCENTRICITY":0.00016969,"INCLINATION":98.0609,"RA_OF_ASC_NODE":265.4997,"ARG_OF_PERICENTER":94.4528,"MEAN_ANOMALY":265.6867,"EPHEMERIS_TYPE":0,"NORAD_CAT_ID":40053,"ELEMENT_SET_NO":999,"REV_AT_EPOCH":64235,"BSTAR":0.000040224506,"MEAN_MOTION_DOT":0.00000152,"MEAN_MOTION_DDOT":0}]}
